IRIDIUM 119             
1 42959U 17061E   24293.04757464  .00000291  00000+0  96698-4 0  9994
2 42959  86.3910 278.5217 0002382  98.6462 261.5004 14.34220338367936
IRIDIUM 132             
1 42961U 17061G   24293.21248701  .00000619  00000+0  21403-3 0  9990
2 42961  86.3909 278.4542 0002638  93.2065 266.9433 14.34219585367961
IRIDIUM 136             
1 42962U 17061H   24293.03489067  .00000559  00000+0  19255-3 0  9998
2 42962  86.3910 278.5322 0002203  93.1796 266.9652 14.34220111367958
IRIDIUM 125             
1 42964U 17061K   24293.23785614  .00000681  00000+0  23614-3 0  9999
2 42964  86.3913 278.5495 0002346 103.3621 256.7836 14.34220578368008
IRIDIUM 135             
1 43070U 17083A   24293.07244019  .00000627  00000+0  21697-3 0  9992
2 43070  86.4017 215.2849 0002210  69.7188 290.4245 14.34220150357279
IRIDIUM 138             
1 43071U 17083B   24293.16757943  .00001449  00000+0  51016-3 0  9999
2 43071  86.4007 214.9469 0001709  93.9492 266.1899 14.34227572357272
